OBJECT_NAME,OBJECT_ID,EPOCH,MEAN_MOTION,ECCENTRICITY,INCLINATION,RA_OF_ASC_NODE,ARG_OF_PERICENTER,MEAN_ANOMALY,EPHEMERIS_TYPE,CLASSIFICATION_TYPE,NORAD_CAT_ID,ELEMENT_SET_NO,REV_AT_EPOCH,BSTAR,MEAN_MOTION_DOT,MEAN_MOTION_DDOT
ASNARO-2,2018-007A,2026-05-12T22:56:51.526752,15.22412215,.00018099,97.3988,140.4309,88.6955,271.4489,0,U,43152,999,46205,.2734361E-3,.6251E-4,0
JILIN-1 07,2018-008E,2026-05-12T22:37:06.289824,15.34125662,.00085871,97.1796,153.8238,171.4634,188.6757,0,U,43159,999,45959,.18039952E-3,.5887E-4,0
JILIN-1 08,2018-008F,2026-05-12T23:40:36.913440,15.33240974,.00059419,97.1825,153.2170,181.1303,178.9928,0,U,43160,999,45955,.17361677E-3,.5502E-4,0
LEMUR-2-KADI,2018-014E,2026-05-12T07:17:10.891392,15.84560105,.0005295,97.4493,61.4464,104.7596,255.4260,0,U,43184,999,45538,.10775E-2,.252857E-2,0
S-NET D,2018-014G,2026-05-12T23:06:18.944928,15.16329813,.00095642,97.5393,37.9782,132.0704,228.1344,0,U,43186,999,45342,.16471316E-3,.3128E-4,0
S-NET B,2018-014H,2026-05-12T10:41:35.385216,15.16297031,.0010222,97.5395,37.4497,130.2698,229.9430,0,U,43187,999,45334,.15056E-3,.2851E-4,0
S-NET A,2018-014J,2026-05-12T23:04:57.204480,15.16336675,.00101791,97.5407,38.1648,129.1688,231.0450,0,U,43188,999,45342,.16581851E-3,.3151E-4,0
S-NET C,2018-014K,2026-05-12T23:27:07.582176,15.16291343,.0011667,97.5424,38.2494,123.6548,236.5799,0,U,43189,999,45197,.15411664E-3,.2921E-4,0
PAZ,2018-020A,2026-05-12T23:58:51.800160,15.19149786,.00017372,97.4459,140.8846,86.9104,273.2329,0,U,43215,999,45566,.59617846E-4,.1185E-4,0
GOES 17,2018-022A,2026-05-12T21:00:19.327680,1.00271727,.0000605,0.8472,86.1892,325.7231,44.3323,0,U,43226,999,3007,0,-.169E-5,0
LKW-4,2018-025A,2026-05-12T22:42:44.757504,15.59541968,.00032199,97.6328,301.1439,86.6992,273.4632,0,U,43236,999,45453,.35342548E-3,.27999E-3,0
ZHUHAI-1 OVS-02,2018-040B,2026-05-12T20:36:56.131200,15.24541601,.0004813,97.0415,152.1933,49.9163,310.2497,0,U,43440,999,44733,.19069424E-3,.4629E-4,0
ZHUHAI-1 OHS-02,2018-040C,2026-05-12T23:52:10.878240,15.25355424,.00092679,97.0402,159.2254,9.3575,350.7835,0,U,43441,999,10891,.20427925E-3,.5091E-4,0
GAOFEN-6,2018-048A,2026-05-12T23:15:41.421888,14.76587901,.00106215,97.7776,196.9397,292.6068,67.4018,0,U,43484,999,42819,.11883943E-4,.34E-6,0
LUOJIA-1 01,2018-048B,2026-05-12T22:03:08.088768,14.87149905,.00076967,97.8102,211.6756,231.6153,128.4373,0,U,43485,999,42897,.16734498E-3,.145E-4,0
PAKTES 1A,2018-056A,2026-05-12T23:01:59.223936,14.98901993,.00214413,98.1217,287.9583,225.8036,134.1425,0,U,43529,999,42664,.13673254E-3,.1594E-4,0
PRSS-1,2018-056B,2026-05-12T22:40:16.934016,14.81930558,.00017733,97.7832,201.7885,95.5396,264.6019,0,U,43530,999,42321,.56695288E-4,.398E-5,0
HAIYANG-1C,2018-068A,2026-05-12T22:38:01.947840,14.34167304,.00105341,98.5197,205.7580,192.8405,167.2513,0,U,43609,999,40203,-.4814646E-5,-.57E-6,0
SSTL S1-4,2018-071A,2026-05-12T15:25:26.835744,14.96198353,.000114,97.5075,5.7265,61.8279,298.3058,0,U,43618,999,41762,.17212E-4,.14E-5,0
HAIYANG-2B,2018-081A,2026-05-12T23:33:40.648608,13.79306355,.00016836,99.3303,142.2683,52.1229,308.0075,0,U,43655,999,38007,.1109993E-3,.7E-6,0
CFOSAT,2018-083A,2026-05-12T22:08:34.420704,15.16477547,.00018965,97.3616,138.4911,61.5300,298.6124,0,U,43662,999,41709,.11446682E-3,.2163E-4,0
TEN-KOH,2018-084G,2026-05-12T12:03:47.238048,15.02776129,.000817,98.0767,323.3683,233.1390,126.9085,0,U,43677,999,41080,.56191E-4,.685E-5,0
DIWATA-2B,2018-084H,2026-05-12T21:21:26.263584,15.00274233,.00119797,98.1105,327.5860,293.1110,66.8850,0,U,43678,999,41092,.17571047E-3,.2138E-4,0
STARS-AO,2018-084J,2026-05-12T20:19:12.110880,15.16649662,.00007704,98.0547,344.6448,315.1016,45.0153,0,U,43679,999,41211,.19449512E-3,.3729E-4,0
AUTCUBE 2,2018-084K,2026-05-12T12:16:55.243200,15.09838183,.0009536,98.0744,336.7966,156.1813,203.9858,0,U,43681,999,41154,.17725E-3,.2798E-4,0
METOP-C,2018-087A,2026-05-12T20:58:52.570848,14.21502066,.0000262,98.6662,193.1192,111.7941,248.3264,0,U,43689,999,38981,.43697706E-4,.52E-6,0
ES'HAIL 2,2018-090A,2026-05-12T21:33:12.057408,1.00274284,.00015855,0.0149,269.4676,176.4981,133.8433,0,U,43700,999,2732,0,.157E-5,0
MOHAMMED VI-B,2018-095A,2026-05-12T22:49:45.041664,14.77068561,.00012948,97.9562,205.7591,78.3529,281.7826,0,U,43717,999,40298,.15631333E-4,.6E-6,0
HYSIS,2018-096A,2026-05-12T22:55:36.784704,14.78619434,.00008233,97.9853,199.9759,101.3303,258.8001,0,U,43719,999,40221,.11418622E-3,.784E-5,0
