ASNARO-2                
1 43152U 18007A   26132.95615193  .00006251  00000+0  27344-3 0  9990
2 43152  97.3988 140.4309 0001809  88.6955 271.4489 15.22412215462058
JILIN-1 07              
1 43159U 18008E   26132.94243391  .00005887  00000+0  18040-3 0  9991
2 43159  97.1796 153.8238 0008587 171.4634 188.6757 15.34125662459596
JILIN-1 08              
1 43160U 18008F   26132.98653835  .00005502  00000+0  17362-3 0  9995
2 43160  97.1825 153.2170 0005941 181.1303 178.9928 15.33240974459553
LEMUR-2-KADI            
1 43184U 18014E   26132.30359828  .00252857  00000+0  10775-2 0  9996
2 43184  97.4493  61.4464 0005295 104.7596 255.4260 15.84560105455380
S-NET D                 
1 43186U 18014G   26132.96271927  .00003128  00000+0  16471-3 0  9998
2 43186  97.5393  37.9782 0009564 132.0704 228.1344 15.16329813453428
S-NET B                 
1 43187U 18014H   26132.44554844  .00002851  00000+0  15056-3 0  9994
2 43187  97.5395  37.4497 0010222 130.2698 229.9430 15.16297031453346
S-NET A                 
1 43188U 18014J   26132.96177320  .00003151  00000+0  16582-3 0  9991
2 43188  97.5407  38.1648 0010179 129.1688 231.0450 15.16336675453427
S-NET C                 
1 43189U 18014K   26132.97717109  .00002921  00000+0  15412-3 0  9993
2 43189  97.5424  38.2494 0011667 123.6548 236.5799 15.16291343451970
PAZ                     
1 43215U 18020A   26132.99921065  .00001185  00000+0  59618-4 0  9998
2 43215  97.4459 140.8846 0001737  86.9104 273.2329 15.19149786455667
GOES 17                 
1 43226U 18022A   26132.87522370 -.00000169  00000+0  00000+0 0  9993
2 43226   0.8472  86.1892 0000605 325.7231  44.3323  1.00271727 30074
LKW-4                   
1 43236U 18025A   26132.94635136  .00027999  00000+0  35343-3 0  9991
2 43236  97.6328 301.1439 0003219  86.6992 273.4632 15.59541968454532
ZHUHAI-1 OVS-02         
1 43440U 18040B   26132.85898300  .00004629  00000+0  19069-3 0  9991
2 43440  97.0415 152.1933 0004813  49.9163 310.2497 15.24541601447331
ZHUHAI-1 OHS-02         
1 43441U 18040C   26132.99457035  .00005091  00000+0  20428-3 0  9998
2 43441  97.0402 159.2254 0009267   9.3575 350.7835 15.25355424108917
GAOFEN-6                
1 43484U 18048A   26132.96922942  .00000034  00000+0  11884-4 0  9993
2 43484  97.7776 196.9397 0010621 292.6068  67.4018 14.76587901428193
LUOJIA-1 01             
1 43485U 18048B   26132.91884362  .00001450  00000+0  16734-3 0  9993
2 43485  97.8102 211.6756 0007696 231.6153 128.4373 14.87149905428976
PAKTES 1A               
1 43529U 18056A   26132.95971324  .00001594  00000+0  13673-3 0  9998
2 43529  98.1217 287.9583 0021441 225.8036 134.1425 14.98901993426648
PRSS-1                  
1 43530U 18056B   26132.94464044  .00000398  00000+0  56695-4 0  9998
2 43530  97.7832 201.7885 0001773  95.5396 264.6019 14.81930558423213
HAIYANG-1C              
1 43609U 18068A   26132.94307810 -.00000057  00000+0 -48146-5 0  9992
2 43609  98.5197 205.7580 0010534 192.8405 167.2513 14.34167304402039
SSTL S1-4               
1 43618U 18071A   26132.64267171  .00000140  00000+0  17212-4 0  9998
2 43618  97.5075   5.7265 0001140  61.8279 298.3058 14.96198353417625
HAIYANG-2B              
1 43655U 18081A   26132.98172047  .00000070  00000+0  11100-3 0  9995
2 43655  99.3303 142.2683 0001683  52.1229 308.0075 13.79306355380070
CFOSAT                  
1 43662U 18083A   26132.92262061  .00002163  00000+0  11447-3 0  9994
2 43662  97.3616 138.4911 0001896  61.5300 298.6124 15.16477547417091
TEN-KOH                 
1 43677U 18084G   26132.50263007  .00000685  00000+0  56191-4 0  9999
2 43677  98.0767 323.3683 0008170 233.1390 126.9085 15.02776129410805
DIWATA-2B               
1 43678U 18084H   26132.88988731  .00002138  00000+0  17571-3 0  9992
2 43678  98.1105 327.5860 0011979 293.1110  66.8850 15.00274233410925
STARS-AO                
1 43679U 18084J   26132.84666795  .00003729  00000+0  19450-3 0  9997
2 43679  98.0547 344.6448 0000770 315.1016  45.0153 15.16649662412111
AUTCUBE 2               
1 43681U 18084K   26132.51175050  .00002798  00000+0  17725-3 0  9991
2 43681  98.0744 336.7966 0009536 156.1813 203.9858 15.09838183411540
METOP-C                 
1 43689U 18087A   26132.87421957  .00000052  00000+0  43698-4 0  9991
2 43689  98.6662 193.1192 0000262 111.7941 248.3264 14.21502066389814
ES'HAIL 2               
1 43700U 18090A   26132.89805622  .00000157  00000+0  00000+0 0  9997
2 43700   0.0149 269.4676 0001585 176.4981 133.8433  1.00274284 27322
MOHAMMED VI-B           
1 43717U 18095A   26132.95121576  .00000060  00000+0  15631-4 0  9990
2 43717  97.9562 205.7591 0001294  78.3529 281.7826 14.77068561402983
HYSIS                   
1 43719U 18096A   26132.95528686  .00000784  00000+0  11419-3 0  9998
2 43719  97.9853 199.9759 0000823 101.3303 258.8001 14.78619434402210
